#aV2023 11 14  0  0  0.00000000     288 DD+AD WGS84 FIT  NGA
## 2288 172800.00000000   300.00000000 60262 0.0000000000000
+   32     1  2  3  4  5  6  7  8  9 10 11 12 13 14 15 16 17
+         18 19 20 21 22 23 24 25 26 27 28 29 30 31 32  0  0
+          0  0  0  0  0  0  0  0  0  0  0  0  0  0  0  0  0
+          0  0  0  0  0  0  0  0  0  0  0  0  0  0  0  0  0
+          0  0  0  0  0  0  0  0  0  0  0  0  0  0  0  0  0
++         2  2  2  2  2  2  2  2  2  2  2  2  2  2  2  2  2
++         2  2  2  2  2  2  2  2  2  2  2  2  2  2  2  0  0
++         0  0  0  0  0  0  0  0  0  0  0  0  0  0  0  0  0
++         0  0  0  0  0  0  0  0  0  0  0  0  0  0  0  0  0
++         0  0  0  0  0  0  0  0  0  0  0  0  0  0  0  0  0
%c cc cc ccc ccc cccc cccc cccc cccc ccccc ccccc ccccc ccccc
%c cc cc ccc ccc cccc cccc cccc cccc ccccc ccccc ccccc ccccc
%f  0.0000000  0.000000000  0.00000000000  0.000000000000000
%f  0.0000000  0.000000000  0.00000000000  0.000000000000000
%i    0    0    0    0      0      0      0      0         0
%i    0    0    0    0      0      0      0      0         0
/*      NGA, ST. LOUIS,MO.                                  
/*   EPHEMERIS COMPUTED FROM 2 DAYS OF DATA                 
/*   EPOCHA v8 SMOOTHER                                     
/*   G2139 IERS2010 SATIGS SATAPC                           
*  2023 11 14 13 35  0.00000000
P  1 -14373.121927  20007.284023   9118.098182    163.199012                    
V  1   2577.017310 -12040.378800  29709.309457      0.000381                    
P  2 -15432.979659  15490.872940  15441.890589   -529.066716                    
V  2   3333.900741 -18569.322539  22902.512558      0.050205                    
P  3 -19787.830093  12084.482740 -13000.421100    -14.739985                    
V  3 -16347.908264    910.652901  26123.966545      0.254261                    
P  4  -8886.884633  12890.628881 -21429.945273    212.654588                    
V  4 -17041.430725 -21260.377478  -5845.989081      0.104514                    
P  5  26041.384416  -5480.833932   -217.748480   -150.347395                    
V  5    467.037155   2444.111980 -31869.136663     -0.014364                    
P  6   9151.399413  13875.501332 -20623.358749    506.145857                    
V  6 -10196.615840  24246.586159  11840.759676     -0.099929                    
P  7  -3937.481294  25128.617985   7202.087584     13.689416                    
V  7  -6119.780304   6948.350018 -30015.193030     -0.099211                    
P  8 -15735.143595   4465.111382  20922.220247   -152.064626                    
V  8 -17145.289796 -20454.231562  -8091.245111     -0.018342                    
P  9   1499.419772  20249.563324 -17181.684038     -3.193243                    
V  9 -15559.045011 -15205.039910 -19433.401968      0.112491                    
P 10 -12618.940311 -11759.364790  20481.184664    -61.359133                    
V 10  24969.518361  -4851.547810  12396.179935     -0.014803                    
P 11  15434.620695   1757.908984 -21515.633952   -459.690270                    
V 11 -10392.231567  25315.365986  -5432.834458     -0.162469                    
P 12  21543.923352 -10322.082886 -11808.275586   -446.896494                    
V 12  14738.355202    839.685035  26857.270479     -0.040967                    
P 13  18413.435662   6607.343367  17861.306669    595.183811                    
V 13  10832.665420  20318.760169 -18266.399195      0.041189                    
P 14   8582.719397  13992.265250  20933.684916    243.012930                    
V 14 -26190.583982   4360.279166   7659.556784      0.107808                    
P 15  14812.246596  -7024.908961  20444.249561     97.049937                    
V 15  19578.065645  18821.690544  -7322.267709      0.037630                    
P 16 -26290.509167  -1610.728011  -5294.476254   -422.213734                    
V 16   6041.038261  -2701.759358 -30595.896279      0.066431                    
P 17  12044.300720  23032.243097   5550.665504    723.247936                    
V 17  -5804.980336  -3827.503268  31040.423180     -0.003734                    
P 18   3633.622759 -24817.876987   8459.712179   -478.838352                    
V 18   6137.883049  -9146.785451 -29687.927079     -0.109022                    
P 19  16852.927959  20395.684258  -4122.907277    398.800847                    
V 19    926.010040   5307.447300  31182.818221      0.052225                    
P 20  23444.037343    982.728825 -12215.878329    401.680404                    
V 20 -13885.047548   7771.444694 -26100.771025     -0.019250                    
P 21 -16037.171017  11635.230001  17726.589325    144.291250                    
V 21   3853.571667 -21631.642176  19126.347914     -0.009943                    
P 22  15158.696789  11846.675138  18635.492549     84.075353                    
V 22 -22668.050243   3221.438172  17078.868094     -0.069946                    
P 23   1536.747245 -15239.216217  21690.295448     98.797980                    
V 23  27059.134514  -4859.691155  -5513.778251      0.063567                    
P 24  14863.167107 -16877.810142  13396.939036   -371.020877                    
V 24  -1562.666684  18129.394696  24291.343677     -0.089594                    
P 25   9708.691914 -15737.025378 -19291.399795    477.349638                    
V 25  23811.740734  -2829.720629  14806.916557      0.016634                    
P 26 -22092.147735  -5389.199326 -14148.568558    216.702550                    
V 26  16573.158686  -6618.463813 -23216.171246     -0.026247                    
P 27 -20489.223541  -9085.323432  14311.960664    -69.810028                    
V 27 -10411.637161 -15334.872118 -23793.016356     -0.052787                    
P 28  -8985.957018 -15790.022499 -19401.146298    -46.016444                    
V 28   9026.402023 -22895.647646  14472.059173     -0.084741                    
P 29    471.713266 -19973.429734 -17493.163086   -610.223028                    
V 29  13973.814942  17230.281226 -19442.053629      0.000435                    
P 30   3933.604870  21341.583542  15256.763378   -468.332309                    
V 30  -9364.520979  17129.758425 -21982.056134      0.040193                    
P 31 -13868.716167  -6868.889619 -21770.979135   -225.726990                    
V 31  10394.760257 -25148.225423   1735.413805     -0.003654                    
P 32 -16105.478039 -21194.996804   1884.339049   -585.600319                    
V 32   3413.979107    -51.295517  31486.612350     -0.044822                    
EOF
